*******************************************************************************
Ephemeris / WWW_USER Mon Mar 24 11:05:33 2025 Pasadena, USA      / Horizons    
*******************************************************************************
Target body name: (2018 VN1)                      {source: JPL#9}
Center body name: Earth (399)                     {source: DE441}
Center-site name: Mauna Kea
*******************************************************************************
Start time      : A.D. 2018-Aug-18 04:58:00.0000 UT      
Stop  time      : A.D. 2018-Aug-18 15:53:00.0000 UT      
Step-size       : 1 minutes
*******************************************************************************
Target pole/equ : undefined
Target radii    : undefined                                                    
Center geodetic : 204.5278, 19.8260847, 4.21024   {E-lon(deg),Lat(deg),Alt(km)}
Center cylindric: 204.5278, 6006.35451, 2151.0229 {E-lon(deg),Dxy(km),Dz(km)}
Center pole/equ : ITRF93                          {East-longitude positive}
Center radii    : 6378.137, 6378.137, 6356.752 km {Equator_a, b, pole_c}       
Target primary  : Sun
Vis. interferer : MOON (R_eq= 1737.400) km        {source: DE441}
Rel. light bend : Sun                             {source: DE441}
Rel. lght bnd GM: 1.3271E+11 km^3/s^2                                          
Small-body perts: Yes                             {source: SB441-N16}
Atmos refraction: NO (AIRLESS)
RA format       : HMS
Time format     : CAL 
Calendar mode   : Mixed Julian/Gregorian
RTS-only print  : NO       
EOP file        : eop.250321.p250617                                           
EOP coverage    : DATA-BASED 1962-JAN-20 TO 2025-MAR-21. PREDICTS-> 2025-JUN-16
Units conversion: 1 au= 149597870.700 km, c= 299792.458 km/s, 1 day= 86400.0 s 
Table cut-offs 1: Elevation (-90.0deg=NO ),Airmass (>38.000=NO), Daylight (YES)
Table cut-offs 2: Solar elongation (  0.0,180.0=NO ),Local Hour Angle( 0.0=NO )
Table cut-offs 3: RA/DEC angular rate (     0.0=NO )                           
*******************************************************************************
Initial IAU76/J2000 heliocentric ecliptic osculating elements (au, days, deg.):
  EPOCH=  2458428.5 ! 2018-Nov-06.00 (TDB)         Residual RMS= .27219        
   EC= .3884608603153671   QR= 1.011903292497374   TP= 2458433.1511739166      
   OM= 228.4137592171332   W=  180.2469578564258   IN= 3.355185598403424       
  Equivalent ICRF heliocentric cartesian coordinates (au, au/d):
   X= 7.364971791856070E-01  Y= 6.361813492829538E-01  Z= 2.815132693616627E-01
  VX=-1.417073247356795E-02 VY= 1.354428742085641E-02 VZ= 4.590405825264917E-03
Asteroid physical parameters (km, seconds, rotational period in hours):        
   GM= n.a.                RAD= n.a.               ROTPER= n.a.                
   H= 26.2                 G= .150                 B-V= n.a.                   
                           ALBEDO= n.a.            STYP= n.a.                  
*******************************************************************************
 Date__(UT)__HR:MN     R.A._________(ICRF)_________DEC
******************************************************
$$SOE
 2018-Aug-18 13:10     22 32 47.751425 +05 40 41.64641
 2018-Aug-18 13:11     22 32 47.733638 +05 40 42.11323
 2018-Aug-18 13:12     22 32 47.715866 +05 40 42.58000
 2018-Aug-18 13:13     22 32 47.698112 +05 40 43.04673
 2018-Aug-18 13:14     22 32 47.680373 +05 40 43.51342
 2018-Aug-18 13:15     22 32 47.662651 +05 40 43.98005
 2018-Aug-18 13:16     22 32 47.644945 +05 40 44.44665
 2018-Aug-18 13:17     22 32 47.627257 +05 40 44.91319
 2018-Aug-18 13:18     22 32 47.609585 +05 40 45.37969
 2018-Aug-18 13:19     22 32 47.591930 +05 40 45.84615
 2018-Aug-18 13:20     22 32 47.574292 +05 40 46.31256
 2018-Aug-18 13:21     22 32 47.556672 +05 40 46.77892
 2018-Aug-18 13:22     22 32 47.539069 +05 40 47.24524
 2018-Aug-18 13:23     22 32 47.521483 +05 40 47.71152
 2018-Aug-18 13:24     22 32 47.503915 +05 40 48.17775
 2018-Aug-18 13:25     22 32 47.486365 +05 40 48.64394
 2018-Aug-18 13:26     22 32 47.468833 +05 40 49.11008
 2018-Aug-18 13:27     22 32 47.451318 +05 40 49.57617
 2018-Aug-18 13:28     22 32 47.433822 +05 40 50.04223
 2018-Aug-18 13:29     22 32 47.416344 +05 40 50.50823
 2018-Aug-18 13:30     22 32 47.398885 +05 40 50.97420
 2018-Aug-18 13:31     22 32 47.381444 +05 40 51.44012
 2018-Aug-18 13:32     22 32 47.364021 +05 40 51.90600
 2018-Aug-18 13:33     22 32 47.346617 +05 40 52.37183
 2018-Aug-18 13:34     22 32 47.329232 +05 40 52.83762
 2018-Aug-18 13:35     22 32 47.311866 +05 40 53.30336
 2018-Aug-18 13:36     22 32 47.294519 +05 40 53.76907
 2018-Aug-18 13:37     22 32 47.277192 +05 40 54.23472
 2018-Aug-18 13:38     22 32 47.259883 +05 40 54.70034
 2018-Aug-18 13:39     22 32 47.242594 +05 40 55.16591
 2018-Aug-18 13:40     22 32 47.225325 +05 40 55.63144
 2018-Aug-18 13:41     22 32 47.208075 +05 40 56.09693
 2018-Aug-18 13:42     22 32 47.190845 +05 40 56.56238
 2018-Aug-18 13:43     22 32 47.173635 +05 40 57.02778
 2018-Aug-18 13:44     22 32 47.156445 +05 40 57.49314
 2018-Aug-18 13:45     22 32 47.139275 +05 40 57.95846
 2018-Aug-18 13:46     22 32 47.122125 +05 40 58.42373
 2018-Aug-18 13:47     22 32 47.104996 +05 40 58.88897
 2018-Aug-18 13:48     22 32 47.087887 +05 40 59.35416
 2018-Aug-18 13:49     22 32 47.070799 +05 40 59.81931
 2018-Aug-18 13:50     22 32 47.053732 +05 41 00.28442
 2018-Aug-18 13:51     22 32 47.036685 +05 41 00.74949
 2018-Aug-18 13:52     22 32 47.019659 +05 41 01.21452
 2018-Aug-18 13:53     22 32 47.002655 +05 41 01.67950
 2018-Aug-18 13:54     22 32 46.985671 +05 41 02.14445
 2018-Aug-18 13:55     22 32 46.968709 +05 41 02.60935
 2018-Aug-18 13:56     22 32 46.951768 +05 41 03.07421
 2018-Aug-18 13:57     22 32 46.934849 +05 41 03.53904
 2018-Aug-18 13:58     22 32 46.917951 +05 41 04.00382
 2018-Aug-18 13:59     22 32 46.901075 +05 41 04.46856
 2018-Aug-18 14:00     22 32 46.884221 +05 41 04.93326
 2018-Aug-18 14:01     22 32 46.867389 +05 41 05.39793
 2018-Aug-18 14:02     22 32 46.850578 +05 41 05.86255
 2018-Aug-18 14:03     22 32 46.833790 +05 41 06.32713
 2018-Aug-18 14:04     22 32 46.817024 +05 41 06.79168
 2018-Aug-18 14:05     22 32 46.800281 +05 41 07.25618
 2018-Aug-18 14:06     22 32 46.783560 +05 41 07.72065
 2018-Aug-18 14:07     22 32 46.766862 +05 41 08.18507
 2018-Aug-18 14:08     22 32 46.750186 +05 41 08.64946
 2018-Aug-18 14:09     22 32 46.733533 +05 41 09.11381
 2018-Aug-18 14:10     22 32 46.716903 +05 41 09.57812
 2018-Aug-18 14:11     22 32 46.700296 +05 41 10.04239
 2018-Aug-18 14:12     22 32 46.683712 +05 41 10.50662
 2018-Aug-18 14:13     22 32 46.667151 +05 41 10.97082
 2018-Aug-18 14:14     22 32 46.650614 +05 41 11.43498
 2018-Aug-18 14:15     22 32 46.634100 +05 41 11.89910
 2018-Aug-18 14:16     22 32 46.617610 +05 41 12.36318
 2018-Aug-18 14:17     22 32 46.601143 +05 41 12.82722
 2018-Aug-18 14:18     22 32 46.584700 +05 41 13.29123
 2018-Aug-18 14:19     22 32 46.568280 +05 41 13.75520
 2018-Aug-18 14:20     22 32 46.551885 +05 41 14.21913
 2018-Aug-18 14:21     22 32 46.535514 +05 41 14.68303
 2018-Aug-18 14:22     22 32 46.519167 +05 41 15.14689
 2018-Aug-18 14:23     22 32 46.502844 +05 41 15.61071
 2018-Aug-18 14:24     22 32 46.486545 +05 41 16.07450
 2018-Aug-18 14:25     22 32 46.470271 +05 41 16.53825
 2018-Aug-18 14:26     22 32 46.454021 +05 41 17.00196
 2018-Aug-18 14:27     22 32 46.437796 +05 41 17.46564
 2018-Aug-18 14:28     22 32 46.421595 +05 41 17.92928
 2018-Aug-18 14:29     22 32 46.405420 +05 41 18.39289
 2018-Aug-18 14:30     22 32 46.389269 +05 41 18.85646
 2018-Aug-18 14:31     22 32 46.373143 +05 41 19.32000
 2018-Aug-18 14:32     22 32 46.357043 +05 41 19.78350
 2018-Aug-18 14:33     22 32 46.340967 +05 41 20.24696
 2018-Aug-18 14:34     22 32 46.324917 +05 41 20.71040
 2018-Aug-18 14:35     22 32 46.308893 +05 41 21.17379
 2018-Aug-18 14:36     22 32 46.292893 +05 41 21.63716
 2018-Aug-18 14:37     22 32 46.276920 +05 41 22.10049
 2018-Aug-18 14:38     22 32 46.260972 +05 41 22.56378
 2018-Aug-18 14:39     22 32 46.245049 +05 41 23.02704
 2018-Aug-18 14:40     22 32 46.229153 +05 41 23.49027
 2018-Aug-18 14:41     22 32 46.213282 +05 41 23.95346
 2018-Aug-18 14:42     22 32 46.197438 +05 41 24.41662
 2018-Aug-18 14:43     22 32 46.181619 +05 41 24.87975
 2018-Aug-18 14:44     22 32 46.165827 +05 41 25.34284
 2018-Aug-18 14:45     22 32 46.150061 +05 41 25.80591
 2018-Aug-18 14:46     22 32 46.134321 +05 41 26.26893
 2018-Aug-18 14:47 A   22 32 46.118608 +05 41 26.73193
 2018-Aug-18 14:48 A   22 32 46.102922 +05 41 27.19489
 2018-Aug-18 14:49 A   22 32 46.087262 +05 41 27.65783
 2018-Aug-18 14:50 A   22 32 46.071628 +05 41 28.12073
 2018-Aug-18 14:51 A   22 32 46.056022 +05 41 28.58359
 2018-Aug-18 14:52 A   22 32 46.040442 +05 41 29.04643
 2018-Aug-18 14:53 A   22 32 46.024890 +05 41 29.50924
 2018-Aug-18 14:54 A   22 32 46.009364 +05 41 29.97201
 2018-Aug-18 14:55 A   22 32 45.993866 +05 41 30.43475
 2018-Aug-18 14:56 A   22 32 45.978394 +05 41 30.89747
 2018-Aug-18 14:57 A   22 32 45.962950 +05 41 31.36015
 2018-Aug-18 14:58 A   22 32 45.947534 +05 41 31.82280
 2018-Aug-18 14:59 A   22 32 45.932145 +05 41 32.28542
 2018-Aug-18 15:00 A   22 32 45.916783 +05 41 32.74801
 2018-Aug-18 15:01 A   22 32 45.901449 +05 41 33.21057
 2018-Aug-18 15:02 A   22 32 45.886143 +05 41 33.67310
 2018-Aug-18 15:03 A   22 32 45.870865 +05 41 34.13560
 2018-Aug-18 15:04 A   22 32 45.855614 +05 41 34.59808
 2018-Aug-18 15:05 A   22 32 45.840391 +05 41 35.06052
 2018-Aug-18 15:06 A   22 32 45.825197 +05 41 35.52293
 2018-Aug-18 15:07 A   22 32 45.810030 +05 41 35.98532
 2018-Aug-18 15:08 A   22 32 45.794892 +05 41 36.44767
 2018-Aug-18 15:09 A   22 32 45.779781 +05 41 36.91000
 2018-Aug-18 15:10 A   22 32 45.764700 +05 41 37.37230
 2018-Aug-18 15:11 A   22 32 45.749646 +05 41 37.83457
 2018-Aug-18 15:12 A   22 32 45.734621 +05 41 38.29682
